{
  "type": "FeatureCollection",
  "features": [
    {
      "type": "Feature",
      "properties": {
        "norad_id": 66174,
        "name": "HTV-X1",
        "group": "stations",
        "lat": -18.19673485709512,
        "lon": -95.71906793461241,
        "alt_km": 420.4876110465475,
        "timestamp": "2025-12-27T12:55:13.230680+00:00",
        "meta_object_name": "HTV-X1",
        "meta_object_id": "2025-241A",
        "meta_epoch": "2025-12-27T04:18:31.505184",
        "meta_mean_motion": 15.49864323,
        "meta_eccentricity": 0.00032283,
        "meta_inclination": 51.6319,
        "meta_ra_of_asc_node": 70.9638,
        "meta_arg_of_pericenter": 308.9173,
        "meta_mean_anomaly": 51.1527,
        "meta_ephemeris_type": 0,
        "meta_classification_type": "U",
        "meta_norad_cat_id": 66174,
        "meta_element_set_no": 999,
        "meta_rev_at_epoch": 51,
        "meta_bstar": 0.0002516974,
        "meta_mean_motion_dot": 0.00013867,
        "meta_mean_motion_ddot": 0,
        "tle_line1": "1 66174U 25241A   25361.17953131  .00013867  00000+0  25170-3 0  9997",
        "tle_line2": "2 66174  51.6319  70.9638 0003228 308.9173  51.1527 15.49864323   512"
      },
      "geometry": {
        "type": "Point",
        "coordinates": [
          -95.71906793461241,
          -18.19673485709512
        ]
      }
    },
    {
      "type": "Feature",
      "properties": {
        "norad_id": 66515,
        "name": "SZ-21 MODULE",
        "group": "stations",
        "lat": -40.6750441478189,
        "lon": -177.6590692983964,
        "alt_km": 380.8319217056887,
        "timestamp": "2025-12-27T12:55:13.230690+00:00",
        "meta_object_name": "SZ-21 MODULE",
        "meta_object_id": "2025-246C",
        "meta_epoch": "2025-12-27T04:08:50.820288",
        "meta_mean_motion": 15.63263847,
        "meta_eccentricity": 0.0004159,
        "meta_inclination": 41.4764,
        "meta_ra_of_asc_node": 287.9534,
        "meta_arg_of_pericenter": 338.5057,
        "meta_mean_anomaly": 21.5607,
        "meta_ephemeris_type": 0,
        "meta_classification_type": "U",
        "meta_norad_cat_id": 66515,
        "meta_element_set_no": 999,
        "meta_rev_at_epoch": 670,
        "meta_bstar": 0.00034323553,
        "meta_mean_motion_dot": 0.00032194,
        "meta_mean_motion_ddot": 0,
        "tle_line1": "1 66515U 25246C   25361.17281042  .00032194  00000+0  34324-3 0  9991",
        "tle_line2": "2 66515  41.4764 287.9534 0004159 338.5057  21.5607 15.63263847  6708"
      },
      "geometry": {
        "type": "Point",
        "coordinates": [
          -177.6590692983964,
          -40.6750441478189
        ]
      }
    },
    {
      "type": "Feature",
      "properties": {
        "norad_id": 66645,
        "name": "SHENZHOU-22",
        "group": "stations",
        "lat": 6.173502682793199,
        "lon": 99.78940111443455,
        "alt_km": 381.2925055573842,
        "timestamp": "2025-12-27T12:55:13.230703+00:00",
        "meta_object_name": "SHENZHOU-22",
        "meta_object_id": "2025-272A",
        "meta_epoch": "2025-12-27T06:02:45.823200",
        "meta_mean_motion": 15.59750285,
        "meta_eccentricity": 0.0008745,
        "meta_inclination": 41.4675,
        "meta_ra_of_asc_node": 288.5662,
        "meta_arg_of_pericenter": 157.7703,
        "meta_mean_anomaly": 202.3516,
        "meta_ephemeris_type": 0,
        "meta_classification_type": "U",
        "meta_norad_cat_id": 66645,
        "meta_element_set_no": 999,
        "meta_rev_at_epoch": 26598,
        "meta_bstar": 0.00024488937,
        "meta_mean_motion_dot": 0.0001992,
        "meta_mean_motion_ddot": 0,
        "tle_line1": "1 66645U 25272A   25361.25191925  .00019920  00000+0  24489-3 0  9996",
        "tle_line2": "2 66645  41.4675 288.5662 0008745 157.7703 202.3516 15.59750285265983"
      },
      "geometry": {
        "type": "Point",
        "coordinates": [
          99.78940111443455,
          6.173502682793199
        ]
      }
    },
    {
      "type": "Feature",
      "properties": {
        "norad_id": 66664,
        "name": "SOYUZ-MS 28",
        "group": "stations",
        "lat": -18.196736469663332,
        "lon": -95.71906647030437,
        "alt_km": 420.4876111144049,
        "timestamp": "2025-12-27T12:55:13.230713+00:00",
        "meta_object_name": "SOYUZ-MS 28",
        "meta_object_id": "2025-275A",
        "meta_epoch": "2025-12-27T04:18:31.505184",
        "meta_mean_motion": 15.49864323,
        "meta_eccentricity": 0.00032283,
        "meta_inclination": 51.6319,
        "meta_ra_of_asc_node": 70.9638,
        "meta_arg_of_pericenter": 308.9173,
        "meta_mean_anomaly": 51.1527,
        "meta_ephemeris_type": 0,
        "meta_classification_type": "U",
        "meta_norad_cat_id": 66664,
        "meta_element_set_no": 999,
        "meta_rev_at_epoch": 128,
        "meta_bstar": 0.0002516974,
        "meta_mean_motion_dot": 0.00013867,
        "meta_mean_motion_ddot": 0,
        "tle_line1": "1 66664U 25275A   25361.17953131  .00013867  00000+0  25170-3 0  9998",
        "tle_line2": "2 66664  51.6319  70.9638 0003228 308.9173  51.1527 15.49864323  1281"
      },
      "geometry": {
        "type": "Point",
        "coordinates": [
          -95.71906647030437,
          -18.196736469663332
        ]
      }
    },
    {
      "type": "Feature",
      "properties": {
        "norad_id": 66906,
        "name": "1998-067XS",
        "group": "stations",
        "lat": -42.39880229834497,
        "lon": 22.648223286524356,
        "alt_km": 415.34218408134893,
        "timestamp": "2025-12-27T12:55:13.230725+00:00",
        "meta_object_name": "1998-067XS",
        "meta_object_id": "1998-067XS",
        "meta_epoch": "2025-12-26T15:31:52.021632",
        "meta_mean_motion": 15.5132596,
        "meta_eccentricity": 0.00026732,
        "meta_inclination": 51.6319,
        "meta_ra_of_asc_node": 73.4106,
        "meta_arg_of_pericenter": 274.6449,
        "meta_mean_anomaly": 85.4236,
        "meta_ephemeris_type": 0,
        "meta_classification_type": "U",
        "meta_norad_cat_id": 66906,
        "meta_element_set_no": 999,
        "meta_rev_at_epoch": 377,
        "meta_bstar": 0.00048784884,
        "meta_mean_motion_dot": 0.0002883,
        "meta_mean_motion_ddot": 0,
        "tle_line1": "1 66906U 98067XS  25360.64712988  .00028830  00000+0  48785-3 0  9993",
        "tle_line2": "2 66906  51.6319  73.4106 0002673 274.6449  85.4236 15.51325960  3771"
      },
      "geometry": {
        "type": "Point",
        "coordinates": [
          22.648223286524356,
          -42.39880229834497
        ]
      }
    },
    {
      "type": "Feature",
      "properties": {
        "norad_id": 66907,
        "name": "1998-067XT",
        "group": "stations",
        "lat": 23.262994705607394,
        "lon": 88.71148721556919,
        "alt_km": 403.59739596509735,
        "timestamp": "2025-12-27T12:55:13.230736+00:00",
        "meta_object_name": "1998-067XT",
        "meta_object_id": "1998-067XT",
        "meta_epoch": "2025-12-27T05:04:13.175904",
        "meta_mean_motion": 15.53277989,
        "meta_eccentricity": 0.00038082,
        "meta_inclination": 51.6318,
        "meta_ra_of_asc_node": 70.428,
        "meta_arg_of_pericenter": 315.2728,
        "meta_mean_anomaly": 44.7954,
        "meta_ephemeris_type": 0,
        "meta_classification_type": "U",
        "meta_norad_cat_id": 66907,
        "meta_element_set_no": 999,
        "meta_rev_at_epoch": 386,
        "meta_bstar": 0.0010975373,
        "meta_mean_motion_dot": 0.00070608,
        "meta_mean_motion_ddot": 0,
        "tle_line1": "1 66907U 98067XT  25361.21126361  .00070608  00000+0  10975-2 0  9991",
        "tle_line2": "2 66907  51.6318  70.4280 0003808 315.2728  44.7954 15.53277989  3868"
      },
      "geometry": {
        "type": "Point",
        "coordinates": [
          88.71148721556919,
          23.262994705607394
        ]
      }
    },
    {
      "type": "Feature",
      "properties": {
        "norad_id": 66908,
        "name": "1998-067XU",
        "group": "stations",
        "lat": 28.01708755568085,
        "lon": 93.71660193856245,
        "alt_km": 403.1415073440612,
        "timestamp": "2025-12-27T12:55:13.230761+00:00",
        "meta_object_name": "1998-067XU",
        "meta_object_id": "1998-067XU",
        "meta_epoch": "2025-12-27T05:02:32.565696",
        "meta_mean_motion": 15.5331388,
        "meta_eccentricity": 0.00039981,
        "meta_inclination": 51.6321,
        "meta_ra_of_asc_node": 70.4196,
        "meta_arg_of_pericenter": 312.4216,
        "meta_mean_anomaly": 47.6435,
        "meta_ephemeris_type": 0,
        "meta_classification_type": "U",
        "meta_norad_cat_id": 66908,
        "meta_element_set_no": 999,
        "meta_rev_at_epoch": 386,
        "meta_bstar": 0.00094152837,
        "meta_mean_motion_dot": 0.00060507,
        "meta_mean_motion_ddot": 0,
        "tle_line1": "1 66908U 98067XU  25361.21009914  .00060507  00000+0  94153-3 0  9994",
        "tle_line2": "2 66908  51.6321  70.4196 0003998 312.4216  47.6435 15.53313880  3867"
      },
      "geometry": {
        "type": "Point",
        "coordinates": [
          93.71660193856245,
          28.01708755568085
        ]
      }
    }
  ]
}